OBJECT_NAME,OBJECT_ID,EPOCH,MEAN_MOTION,ECCENTRICITY,INCLINATION,RA_OF_ASC_NODE,ARG_OF_PERICENTER,MEAN_ANOMALY,EPHEMERIS_TYPE,CLASSIFICATION_TYPE,NORAD_CAT_ID,ELEMENT_SET_NO,REV_AT_EPOCH,BSTAR,MEAN_MOTION_DOT,MEAN_MOTION_DDOT
LEMUR-1,2014-033AL,2026-06-03T22:54:19.067040,14.85188536,.00496452,97.7867,305.0553,120.8485,239.7628,0,U,40044,999,64350,.33051448E-3,.284E-4,0
LEMUR-2-GREENBERG,2017-042N,2026-06-04T12:56:26.359008,15.30914916,.0009696,97.3815,336.2266,56.8550,303.3620,0,U,42837,999,48645,.58482E-3,.17438E-3,0
LEMUR-2-ANDIS,2017-042P,2026-06-04T01:48:21.746880,15.34295092,.0009265,97.3677,335.9049,58.5132,301.7015,0,U,42838,999,48644,.70843E-3,.23518E-3,0
LEMUR-2-MONSON,2017-042Q,2026-06-04T01:29:37.918752,15.27642419,.00074076,97.4073,335.7437,50.3120,309.8772,0,U,42839,999,48616,.61840005E-3,.16668E-3,0
LEMUR-2-FURIAUS,2017-042R,2026-06-04T01:35:11.513472,15.29794594,.00086234,97.3769,333.7410,109.3571,250.8603,0,U,42840,999,48620,.66840387E-3,.19261E-3,0
LEMUR-2-PETERG,2017-042S,2026-06-04T07:29:39.588000,15.33341515,.0004272,97.3988,340.3274,43.6943,316.4637,0,U,42841,999,48646,.87019E-3,.28037E-3,0
LEMUR-2-DEMBITZ,2017-042T,2026-06-04T17:46:25.671360,15.29903722,.0007715,97.3822,337.4241,69.0521,291.1544,0,U,42842,999,48644,.60308E-3,.17422E-3,0
LEMUR-2-ZACHARY,2017-042W,2026-06-04T14:22:22.060416,15.49134625,.000374,97.3612,346.9776,74.8050,285.3614,0,U,42845,999,48725,.82559E-3,.44991E-3,0
LEMUR-2-KADI,2018-014E,2026-06-04T00:01:13.494432,16.29437538,.00107518,97.4308,86.5413,218.5886,141.4640,0,U,43184,999,45900,.13546809E-2,.5670531E-1,.2523326E-5
LEMUR-2-AMANDA-SVANTE,2021-034B,2026-06-04T04:19:17.941728,15.33486404,.0000868,97.5764,233.1304,273.8548,86.2594,0,U,48269,999,27906,.11185E-2,.36252E-3,0
LEMUR-2-SPECIAL-K,2021-034F,2026-06-04T11:17:46.664736,15.60930605,.0002646,97.5658,241.4438,237.6547,122.4454,0,U,48273,999,27970,.17681E-2,.150379E-2,0
LEMUR-2-EMBRIONOVIS,2023-084AQ,2026-06-04T04:25:19.768512,15.37210087,.00086903,97.6283,298.8891,9.7326,350.4085,0,U,56970,999,16568,.40876087E-3,.14838E-3,0
LEMUR-2-DEVERILL-M-T,2023-100F,2026-06-04T00:57:38.467584,15.39072057,.00075061,99.4476,190.0097,90.1093,270.1006,0,U,57391,999,15922,.72838068E-3,.28179E-3,0
LEMUR-2-BASS,2023-174D,2026-06-04T01:03:58.802112,15.42640730,.00067084,97.3846,239.5780,205.8379,154.2535,0,U,58259,999,14333,.43878358E-3,.19056E-3,0
LEMUR-2-JK0903EM1407,2023-174CJ,2026-06-03T05:03:47.623968,15.50932470,.0005853,97.3911,244.2978,157.9931,202.1574,0,U,58336,999,14356,.52485E-3,.30393E-3,0
LEMUR-2-MJR092620,2023-174CN,2026-06-03T05:31:42.864672,15.44335090,.0006697,97.3972,244.0089,158.4344,201.7188,0,U,58340,999,14349,.47992E-3,.22083E-3,0
LEMUR-2-NIMBUS2000,2024-022A,2026-06-03T13:28:37.536384,15.39536048,.00096189,97.4115,4.3959,158.4681,201.6971,0,U,58899,999,13017,.46642509E-3,.18293E-3,0
LEMUR-2-VALHALLA,2024-022B,2026-06-04T01:48:06.489504,15.39255789,.00102842,97.4114,4.9130,153.0706,207.1075,0,U,58900,999,13025,.46513935E-3,.18079E-3,0
LEMUR-2-OBA-NI-JESU,2024-022D,2026-06-04T02:01:33.643488,16.01587691,.00042461,97.3762,19.1765,174.1570,185.9759,0,U,58902,999,13122,.14139318E-2,.781493E-2,.29339626E-3
LEMUR-2-CAEL,2024-022E,2026-06-04T02:18:01.630944,15.40526305,.00089216,97.4097,5.8472,136.4150,223.7802,0,U,58903,999,13032,.47114031E-3,.19089E-3,0
LEMUR-2-JOHNNYTRUONG,2024-043BA,2026-06-02T17:12:06.652224,15.59343752,.00042672,97.5373,304.5368,221.4985,138.5947,0,U,59146,999,12578,.52884291E-3,.41716E-3,0
LEMUR-2-TOMATOKECHUP,2024-149D,2026-06-03T05:31:21.546336,15.35726512,.0000172,97.3801,236.2448,277.6232,82.4992,0,U,60471,999,10002,.35632E-3,.12306E-3,0
LEMUR-2-STELLA,2024-149BT,2026-06-03T18:38:33.941472,15.11502384,.00019303,97.6744,237.1777,107.4795,252.6646,0,U,60533,999,9847,.78876653E-3,.13306E-3,0
LEMUR-2-MARHISYAM,2024-149BW,2026-06-03T05:20:23.402112,15.10956429,.0003024,97.6883,237.0548,140.8634,219.2814,0,U,60536,999,9837,.77357E-3,.12853E-3,0
LEMUR-2-AHMED-ASRAR,2024-149DN,2026-06-03T11:14:29.862816,15.12381793,.00028632,97.6997,239.3410,73.6698,286.4847,0,U,60576,999,9849,.78265336E-3,.1353E-3,0
LEMUR-2-LLOYD,2024-149DP,2026-06-03T20:20:14.559936,15.08964794,.00040896,97.6741,235.9718,177.6950,182.4298,0,U,60577,999,9838,.79198918E-3,.12459E-3,0
LEMUR-2-SQUIRRELCOMM,2024-149DQ,2026-06-03T04:18:37.222272,15.06978397,.0006694,97.6702,235.1362,100.1795,260.0188,0,U,60578,999,9829,.51868E-3,.7706E-4,0
LEMUR-2-SIERRINI,2024-149DR,2026-06-03T04:14:39.461568,15.10632468,.00046387,97.6846,236.7107,210.6657,149.4302,0,U,60579,999,9834,.80802606E-3,.13311E-3,0
LEMUR-2-WILSON,2025-009CP,2026-06-03T04:11:24.620928,14.95104153,.00049873,97.7030,232.8857,88.4180,271.7612,0,U,62694,999,7526,.30154459E-3,.325E-4,0
LEMUR-2-STAR-FOX,2025-009CR,2026-06-04T00:55:58.402560,15.02290827,.00024557,97.6940,236.7443,148.7165,211.4206,0,U,62696,999,7558,.69848719E-3,.917E-4,0
